STARLINK-30777          
1 58233U 23171D   26062.16668981  .01865067  00000+0  10822+0 0  9990
2 58233  43.0001 321.5970 0001940 286.8920  29.2205 15.08429877  5766
STARLINK-30860          
1 58234U 23171E   26062.16668981  .02557393  00000+0  11654+0 0  9996
2 58234  42.9992 321.2967 0001468 274.6912 169.5284 15.16004996  5662
STARLINK-30853          
1 58236U 23171G   26062.16668981  .01397161  00000+0  74476-1 0  9995
2 58236  43.0003 321.5767 0001646 287.8836  38.4873 15.11410530  5667
STARLINK-30866          
1 58237U 23171H   26062.16668981  .01436829  00000+0  78944-1 0  9995
2 58237  43.0001 321.2223 0001800 278.1642 195.1646 15.10219583  5821
STARLINK-30817          
1 58238U 23171J   26062.16668981  .01516586  00000+0  78443-1 0  9999
2 58238  43.0008 321.4979 0001733 284.5440  72.5133 15.12744914  5014
STARLINK-30847          
1 58239U 23171K   26062.16668981  .01281155  00000+0  66928-1 0  9996
2 58239  43.0003 321.6143 0001638 289.2651  20.3527 15.12405144  5810
STARLINK-30848          
1 58240U 23171L   26062.16668981  .02179618  00000+0  77688-1 0  9994
2 58240  42.9999 321.8846 0001956 260.3378 288.5575 15.25055019  5812
STARLINK-30843          
1 58241U 23171M   26062.16668981  .01376984  00000+0  72987-1 0  9996
2 58241  43.0005 321.6807 0001642 287.7408 348.0693 15.11661145  5717
STARLINK-30877          
1 58242U 23171N   26062.16668981  .01889631  00000+0  10663+0 0  9996
2 58242  42.9995 321.2684 0001749 307.6739 141.3730 15.09410065  5727
STARLINK-30864          
1 58243U 23171P   26062.06636086  .00066848  00000+0  48480-2 0  9994
2 58243  43.0029 321.6031 0001670 222.5638 137.5076 15.03065406128639
STARLINK-30854          
1 58244U 23171Q   26062.16668981  .01353663  00000+0  55091-1 0  9995
2 58244  43.0006 322.0710 0001731 277.8738 198.0273 15.21021574  5561
STARLINK-30849          
1 58245U 23171R   26062.16668981  .01838663  00000+0  10819+0 0  9991
2 58245  43.0006 321.0570 0001536 237.4901 302.7810 15.07404780  5819
STARLINK-30886          
1 58246U 23171S   26062.16668981  .01980195  00000+0  11977+0 0  9996
2 58246  43.0001 321.1545 0001302 290.7948 208.9237 15.06696946  5818
STARLINK-30850          
1 58247U 23171T   26062.16668981  .01943396  00000+0  11534+0 0  9998
2 58247  43.0012 321.1029 0001110 302.5875 221.1085 15.07460488  5815
STARLINK-30823          
1 58248U 23171U   26062.16668981  .01865299  00000+0  10293+0 0  9995
2 58248  43.0006 321.1300 0001338 292.2361 216.3915 15.09712116  5827
STARLINK-30873          
1 58249U 23171V   26062.16668981  .01354597  00000+0  74076-1 0  9991
2 58249  43.0003 321.1638 0001745 279.6355 218.3767 15.10581411  5767
STARLINK-30808          
1 58250U 23171W   26062.16668981  .00146062  00000+0  53700-2 0  9990
2 58250  42.9990 322.2240 0001512 275.3469 126.2283 15.26602985  5817
