[{"OBJECT_NAME":"STARLINK-30777","OBJECT_ID":"2023-171D","EPOCH":"2026-03-03T04:00:01.999584","MEAN_MOTION":15.08429877,"ECCENTRICITY":0.000194,"INCLINATION":43.0001,"RA_OF_ASC_NODE":321.597,"ARG_OF_PERICENTER":286.892,"MEAN_ANOMALY":29.2205,"EPHEMERIS_TYPE":0,"CLASSIFICATION_TYPE":"U","NORAD_CAT_ID":58233,"ELEMENT_SET_NO":999,"REV_AT_EPOCH":576,"BSTAR":0.10822,"MEAN_MOTION_DOT":0.01865067,"MEAN_MOTION_DDOT":0},{"OBJECT_NAME":"STARLINK-30860","OBJECT_ID":"2023-171E","EPOCH":"2026-03-03T04:00:01.999584","MEAN_MOTION":15.16004996,"ECCENTRICITY":0.0001468,"INCLINATION":42.9992,"RA_OF_ASC_NODE":321.2967,"ARG_OF_PERICENTER":274.6912,"MEAN_ANOMALY":169.5284,"EPHEMERIS_TYPE":0,"CLASSIFICATION_TYPE":"U","NORAD_CAT_ID":58234,"ELEMENT_SET_NO":999,"REV_AT_EPOCH":566,"BSTAR":0.11654,"MEAN_MOTION_DOT":0.02557393,"MEAN_MOTION_DDOT":0},{"OBJECT_NAME":"STARLINK-30853","OBJECT_ID":"2023-171G","EPOCH":"2026-03-03T04:00:01.999584","MEAN_MOTION":15.1141053,"ECCENTRICITY":0.0001646,"INCLINATION":43.0003,"RA_OF_ASC_NODE":321.5767,"ARG_OF_PERICENTER":287.8836,"MEAN_ANOMALY":38.4873,"EPHEMERIS_TYPE":0,"CLASSIFICATION_TYPE":"U","NORAD_CAT_ID":58236,"ELEMENT_SET_NO":999,"REV_AT_EPOCH":566,"BSTAR":0.074476,"MEAN_MOTION_DOT":0.01397161,"MEAN_MOTION_DDOT":0},{"OBJECT_NAME":"STARLINK-30866","OBJECT_ID":"2023-171H","EPOCH":"2026-03-03T04:00:01.999584","MEAN_MOTION":15.10219583,"ECCENTRICITY":0.00018,"INCLINATION":43.0001,"RA_OF_ASC_NODE":321.2223,"ARG_OF_PERICENTER":278.1642,"MEAN_ANOMALY":195.1646,"EPHEMERIS_TYPE":0,"CLASSIFICATION_TYPE":"U","NORAD_CAT_ID":58237,"ELEMENT_SET_NO":999,"REV_AT_EPOCH":582,"BSTAR":0.078944,"MEAN_MOTION_DOT":0.01436829,"MEAN_MOTION_DDOT":0},{"OBJECT_NAME":"STARLINK-30817","OBJECT_ID":"2023-171J","EPOCH":"2026-03-03T04:00:01.999584","MEAN_MOTION":15.12744914,"ECCENTRICITY":0.0001733,"INCLINATION":43.0008,"RA_OF_ASC_NODE":321.4979,"ARG_OF_PERICENTER":284.544,"MEAN_ANOMALY":72.5133,"EPHEMERIS_TYPE":0,"CLASSIFICATION_TYPE":"U","NORAD_CAT_ID":58238,"ELEMENT_SET_NO":999,"REV_AT_EPOCH":501,"BSTAR":0.078443,"MEAN_MOTION_DOT":0.01516586,"MEAN_MOTION_DDOT":0},{"OBJECT_NAME":"STARLINK-30847","OBJECT_ID":"2023-171K","EPOCH":"2026-03-03T04:00:01.999584","MEAN_MOTION":15.12405144,"ECCENTRICITY":0.0001638,"INCLINATION":43.0003,"RA_OF_ASC_NODE":321.6143,"ARG_OF_PERICENTER":289.2651,"MEAN_ANOMALY":20.3527,"EPHEMERIS_TYPE":0,"CLASSIFICATION_TYPE":"U","NORAD_CAT_ID":58239,"ELEMENT_SET_NO":999,"REV_AT_EPOCH":581,"BSTAR":0.066928,"MEAN_MOTION_DOT":0.01281155,"MEAN_MOTION_DDOT":0},{"OBJECT_NAME":"STARLINK-30848","OBJECT_ID":"2023-171L","EPOCH":"2026-03-03T04:00:01.999584","MEAN_MOTION":15.25055019,"ECCENTRICITY":0.0001956,"INCLINATION":42.9999,"RA_OF_ASC_NODE":321.8846,"ARG_OF_PERICENTER":260.3378,"MEAN_ANOMALY":288.5575,"EPHEMERIS_TYPE":0,"CLASSIFICATION_TYPE":"U","NORAD_CAT_ID":58240,"ELEMENT_SET_NO":999,"REV_AT_EPOCH":581,"BSTAR":0.077688,"MEAN_MOTION_DOT":0.02179618,"MEAN_MOTION_DDOT":0},{"OBJECT_NAME":"STARLINK-30843","OBJECT_ID":"2023-171M","EPOCH":"2026-03-03T04:00:01.999584","MEAN_MOTION":15.11661145,"ECCENTRICITY":0.0001642,"INCLINATION":43.0005,"RA_OF_ASC_NODE":321.6807,"ARG_OF_PERICENTER":287.7408,"MEAN_ANOMALY":348.0693,"EPHEMERIS_TYPE":0,"CLASSIFICATION_TYPE":"U","NORAD_CAT_ID":58241,"ELEMENT_SET_NO":999,"REV_AT_EPOCH":571,"BSTAR":0.072987,"MEAN_MOTION_DOT":0.01376984,"MEAN_MOTION_DDOT":0},{"OBJECT_NAME":"STARLINK-30877","OBJECT_ID":"2023-171N","EPOCH":"2026-03-03T04:00:01.999584","MEAN_MOTION":15.09410065,"ECCENTRICITY":0.0001749,"INCLINATION":42.9995,"RA_OF_ASC_NODE":321.2684,"ARG_OF_PERICENTER":307.6739,"MEAN_ANOMALY":141.373,"EPHEMERIS_TYPE":0,"CLASSIFICATION_TYPE":"U","NORAD_CAT_ID":58242,"ELEMENT_SET_NO":999,"REV_AT_EPOCH":572,"BSTAR":0.10663,"MEAN_MOTION_DOT":0.01889631,"MEAN_MOTION_DDOT":0},{"OBJECT_NAME":"STARLINK-30864","OBJECT_ID":"2023-171P","EPOCH":"2026-03-03T01:35:33.578304","MEAN_MOTION":15.03065406,"ECCENTRICITY":0.000167,"INCLINATION":43.0029,"RA_OF_ASC_NODE":321.6031,"ARG_OF_PERICENTER":222.5638,"MEAN_ANOMALY":137.5076,"EPHEMERIS_TYPE":0,"CLASSIFICATION_TYPE":"U","NORAD_CAT_ID":58243,"ELEMENT_SET_NO":999,"REV_AT_EPOCH":12863,"BSTAR":0.004848,"MEAN_MOTION_DOT":0.00066848,"MEAN_MOTION_DDOT":0},{"OBJECT_NAME":"STARLINK-30854","OBJECT_ID":"2023-171Q","EPOCH":"2026-03-03T04:00:01.999584","MEAN_MOTION":15.21021574,"ECCENTRICITY":0.0001731,"INCLINATION":43.0006,"RA_OF_ASC_NODE":322.071,"ARG_OF_PERICENTER":277.8738,"MEAN_ANOMALY":198.0273,"EPHEMERIS_TYPE":0,"CLASSIFICATION_TYPE":"U","NORAD_CAT_ID":58244,"ELEMENT_SET_NO":999,"REV_AT_EPOCH":556,"BSTAR":0.055091,"MEAN_MOTION_DOT":0.01353663,"MEAN_MOTION_DDOT":0},{"OBJECT_NAME":"STARLINK-30849","OBJECT_ID":"2023-171R","EPOCH":"2026-03-03T04:00:01.999584","MEAN_MOTION":15.0740478,"ECCENTRICITY":0.0001536,"INCLINATION":43.0006,"RA_OF_ASC_NODE":321.057,"ARG_OF_PERICENTER":237.4901,"MEAN_ANOMALY":302.781,"EPHEMERIS_TYPE":0,"CLASSIFICATION_TYPE":"U","NORAD_CAT_ID":58245,"ELEMENT_SET_NO":999,"REV_AT_EPOCH":581,"BSTAR":0.10819,"MEAN_MOTION_DOT":0.01838663,"MEAN_MOTION_DDOT":0},{"OBJECT_NAME":"STARLINK-30886","OBJECT_ID":"2023-171S","EPOCH":"2026-03-03T04:00:01.999584","MEAN_MOTION":15.06696946,"ECCENTRICITY":0.0001302,"INCLINATION":43.0001,"RA_OF_ASC_NODE":321.1545,"ARG_OF_PERICENTER":290.7948,"MEAN_ANOMALY":208.9237,"EPHEMERIS_TYPE":0,"CLASSIFICATION_TYPE":"U","NORAD_CAT_ID":58246,"ELEMENT_SET_NO":999,"REV_AT_EPOCH":581,"BSTAR":0.11977,"MEAN_MOTION_DOT":0.01980195,"MEAN_MOTION_DDOT":0},{"OBJECT_NAME":"STARLINK-30850","OBJECT_ID":"2023-171T","EPOCH":"2026-03-03T04:00:01.999584","MEAN_MOTION":15.07460488,"ECCENTRICITY":0.000111,"INCLINATION":43.0012,"RA_OF_ASC_NODE":321.1029,"ARG_OF_PERICENTER":302.5875,"MEAN_ANOMALY":221.1085,"EPHEMERIS_TYPE":0,"CLASSIFICATION_TYPE":"U","NORAD_CAT_ID":58247,"ELEMENT_SET_NO":999,"REV_AT_EPOCH":581,"BSTAR":0.11534,"MEAN_MOTION_DOT":0.01943396,"MEAN_MOTION_DDOT":0},{"OBJECT_NAME":"STARLINK-30823","OBJECT_ID":"2023-171U","EPOCH":"2026-03-03T04:00:01.999584","MEAN_MOTION":15.09712116,"ECCENTRICITY":0.0001338,"INCLINATION":43.0006,"RA_OF_ASC_NODE":321.13,"ARG_OF_PERICENTER":292.2361,"MEAN_ANOMALY":216.3915,"EPHEMERIS_TYPE":0,"CLASSIFICATION_TYPE":"U","NORAD_CAT_ID":58248,"ELEMENT_SET_NO":999,"REV_AT_EPOCH":582,"BSTAR":0.10293,"MEAN_MOTION_DOT":0.01865299,"MEAN_MOTION_DDOT":0},{"OBJECT_NAME":"STARLINK-30873","OBJECT_ID":"2023-171V","EPOCH":"2026-03-03T04:00:01.999584","MEAN_MOTION":15.10581411,"ECCENTRICITY":0.0001745,"INCLINATION":43.0003,"RA_OF_ASC_NODE":321.1638,"ARG_OF_PERICENTER":279.6355,"MEAN_ANOMALY":218.3767,"EPHEMERIS_TYPE":0,"CLASSIFICATION_TYPE":"U","NORAD_CAT_ID":58249,"ELEMENT_SET_NO":999,"REV_AT_EPOCH":576,"BSTAR":0.074076,"MEAN_MOTION_DOT":0.01354597,"MEAN_MOTION_DDOT":0},{"OBJECT_NAME":"STARLINK-30808","OBJECT_ID":"2023-171W","EPOCH":"2026-03-03T04:00:01.999584","MEAN_MOTION":15.26602985,"ECCENTRICITY":0.0001512,"INCLINATION":42.999,"RA_OF_ASC_NODE":322.224,"ARG_OF_PERICENTER":275.3469,"MEAN_ANOMALY":126.2283,"EPHEMERIS_TYPE":0,"CLASSIFICATION_TYPE":"U","NORAD_CAT_ID":58250,"ELEMENT_SET_NO":999,"REV_AT_EPOCH":581,"BSTAR":0.00537,"MEAN_MOTION_DOT":0.00146062,"MEAN_MOTION_DDOT":0}]
